NORAD_CAT_ID,OBJECT_NAME,OBJECT_TYPE,EPOCH,MEAN_MOTION,ECCENTRICITY,INCLINATION,RA_OF_ASC_NODE,ARG_OF_PERICENTER,MEAN_ANOMALY,BSTAR,MEAN_MOTION_DOT,MEAN_MOTION_DDOT,TLE_LINE0,TLE_LINE1,TLE_LINE2,SEMIMAJOR_AXIS,PERIOD,APOGEE,PERIGEE,DECAYED
53601.0,STARLINK-4675,PAYLOAD,2023-04-18 19:14:07,15.08847268,0.0001239,53.216,304.0412,64.4115,295.7005,0.00025311,3.743e-05,0.0,0 STARLINK-4675,1 53601U 22104P   23108.80147010  .00003743  00000-0  25311-3 0  9991,2 53601  53.2160 304.0412 0001239  64.4115 295.7005 15.08847268 36213,6917.858,95.437,540.58,538.866,0.0
53601.0,STARLINK-4675,PAYLOAD,2023-04-19 12:43:22,15.08824353,0.0001098,53.2155,300.7697,71.3572,288.7539,-0.00010433,-1.947e-05,0.0,0 STARLINK-4675,1 53601U 22104P   23109.53012565 -.00001947  00000-0 -10433-3 0  9993,2 53601  53.2155 300.7697 0001098  71.3572 288.7539 15.08824353 35631,6917.928,95.439,540.553,539.034,0.0
53601.0,STARLINK-4675,PAYLOAD,2023-04-19 19:04:55,15.08826,0.0001256,53.2167,299.5816,89.4423,270.6713,-1.5455e-05,-5.34e-06,0.0,0 STARLINK-4675,1 53601U 22104P   23109.79508747 -.00000534  00000-0 -15455-4 0  9994,2 53601  53.2167 299.5816 0001256  89.4423 270.6713 15.08826000 36369,6917.923,95.438,540.657,538.919,0.0
53601.0,STARLINK-4675,PAYLOAD,2023-04-20 12:34:09,15.088436,6.76e-05,53.2152,296.3129,41.0511,319.0531,0.00031922,4.797e-05,0.0,0 STARLINK-4675,1 53601U 22104P   23110.52372425  .00004797  00000-0  31922-3 0  9998,2 53601  53.2152 296.3129 0000676  41.0511 319.0531 15.08843600 36475,6917.869,95.437,540.202,539.267,0.0
53601.0,STARLINK-4675,PAYLOAD,2023-04-20 15:44:56,15.08847308,7e-05,53.2144,295.7186,31.8657,328.2377,0.00058052,8.965e-05,0.0,0 STARLINK-4675,1 53601U 22104P   23110.65620485  .00008965  00000-0  58052-3 0  9998,2 53601  53.2144 295.7186 0000700  31.8657 328.2377 15.08847308 36499,6917.858,95.437,540.207,539.239,0.0
53601.0,STARLINK-4675,PAYLOAD,2023-04-21 12:24:56,15.08872804,5.63e-05,53.2156,291.8484,81.5641,278.5415,0.00082902,0.00012942,0.0,0 STARLINK-4675,1 53601U 22104P   23111.51731507  .00012942  00000-0  82902-3 0  9993,2 53601  53.2156 291.8484 0000563  81.5641 278.5415 15.08872804 35939,6917.78,95.435,540.035,539.256,0.0
53601.0,STARLINK-4675,PAYLOAD,2023-04-21 21:57:14,15.08872223,5.63e-05,53.2164,290.0646,49.4505,310.6536,0.0017254,0.00027303,0.0,0 STARLINK-4675,1 53601U 22104P   23111.91475112  .00027303  00000-0  17254-2 0  9998,2 53601  53.2164 290.0646 0000563  49.4505 310.6536 15.08872223 36681,6917.782,95.436,540.036,539.257,0.0
53601.0,STARLINK-4675,PAYLOAD,2023-04-22 12:15:42,15.08856072,6.49e-05,53.2161,287.3882,92.4037,267.7029,0.00081946,0.00012784,0.0,0 STARLINK-4675,1 53601U 22104P   23112.51090958  .00012784  00000-0  81946-3 0  9993,2 53601  53.2161 287.3882 0000649  92.4037 267.7029 15.08856072 36089,6917.831,95.437,540.145,539.247,0.0
53601.0,STARLINK-4675,PAYLOAD,2023-04-22 18:37:14,15.08860821,5.98e-05,53.216,286.1988,80.7126,279.3934,0.0008329,0.00013,0.0,0 STARLINK-4675,1 53601U 22104P   23112.77586684  .00013000  00000-0  83290-3 0  9993,2 53601  53.2160 286.1988 0000598  80.7126 279.3934 15.08860821 36816,6917.817,95.436,540.095,539.268,0.0
53601.0,STARLINK-4675,PAYLOAD,2023-04-23 04:09:33,15.08847897,4.77e-05,53.2162,284.4156,82.0352,278.0694,0.00032826,4.942e-05,0.0,0 STARLINK-4675,1 53601U 22104P   23113.17330751  .00004942  00000-0  32826-3 0  9994,2 53601  53.2162 284.4156 0000477  82.0352 278.0694 15.08847897 36185,6917.856,95.437,540.051,539.391,0.0
53601.0,STARLINK-4675,PAYLOAD,2023-04-23 12:06:29,15.08829781,5.91e-05,53.2153,282.9267,63.5211,296.5842,-3.552e-06,-3.44e-06,0.0,0 STARLINK-4675,1 53601U 22104P   23113.50451253 -.00000344  00000-0 -35520-5 0  9992,2 53601  53.2153 282.9267 0000591  63.5211 296.5842 15.08829781 36920,6917.912,95.438,540.185,539.368,0.0
53601.0,STARLINK-4675,PAYLOAD,2023-04-24 10:21:53,15.08912422,9.01e-05,53.2168,278.7651,90.5112,269.5984,0.0035961,0.00057525,0.0,0 STARLINK-4675,1 53601U 22104P   23114.43186510  .00057525  00000-0  35961-2 0  9993,2 53601  53.2168 278.7651 0000901  90.5112 269.5984 15.08912422 37069,6917.659,95.433,540.147,538.901,0.0
53601.0,STARLINK-4675,PAYLOAD,2023-04-25 10:12:40,15.08832945,0.0001971,53.2163,274.3039,255.7161,104.3613,0.00042448,6.473e-05,0.0,0 STARLINK-4675,1 53601U 22104P   23115.42547285  .00006473  00000-0  42448-3 0  9998,2 53601  53.2163 274.3039 0001971 255.7161 104.3613 15.08832945 36529,6917.902,95.438,541.13,538.403,0.0
53601.0,STARLINK-4675,PAYLOAD,2023-04-26 13:14:16,15.08841432,4.29e-05,53.2152,269.2488,167.8218,192.2784,0.0011883,0.00018675,0.0,0 STARLINK-4675,1 53601U 22104P   23116.55157676  .00018675  00000-0  11883-2 0  9999,2 53601  53.2152 269.2488 0000429 167.8218 192.2784 15.08841432 37382,6917.876,95.437,540.038,539.444,0.0
53601.0,STARLINK-4675,PAYLOAD,2023-04-26 16:25:02,15.0884349,5.64e-05,53.215,268.6542,138.4522,221.6513,0.0012798,0.00020141,0.0,0 STARLINK-4675,1 53601U 22104P   23116.68405727  .00020141  00000-0  12798-2 0  9993,2 53601  53.2150 268.6542 0000564 138.4522 221.6513 15.08843490 37402,6917.87,95.437,540.125,539.345,0.0
53601.0,STARLINK-4675,PAYLOAD,2023-04-27 09:54:17,15.08846448,6.49e-05,53.2145,265.3835,105.6587,254.4477,0.0016473,0.00026031,0.0,0 STARLINK-4675,1 53601U 22104P   23117.41269811  .00026031  00000-0  16473-2 0  9995,2 53601  53.2145 265.3835 0000649 105.6587 254.4477 15.08846448 37517,6917.861,95.437,540.175,539.277,0.0
53601.0,STARLINK-4675,PAYLOAD,2023-04-27 19:26:34,15.08870041,5.37e-05,53.2147,263.5988,132.8738,227.23,0.00048972,7.521e-05,0.0,0 STARLINK-4675,1 53601U 22104P   23117.81011767  .00007521  00000-0  48972-3 0  9997,2 53601  53.2147 263.5988 0000537 132.8738 227.2300 15.08870041 36882,6917.789,95.436,540.025,539.282,0.0
53601.0,STARLINK-4675,PAYLOAD,2023-04-28 17:41:57,15.08851687,3.56e-05,53.2147,259.4368,74.4881,285.6151,3.0879e-06,-2.38e-06,0.0,0 STARLINK-4675,1 53601U 22104P   23118.73747654 -.00000238  00000-0  30879-5 0  9998,2 53601  53.2147 259.4368 0000356  74.4881 285.6151 15.08851687 37021,6917.845,95.437,539.956,539.463,0.0
53601.0,STARLINK-4675,PAYLOAD,2023-04-29 12:46:36,15.08826132,4.98e-05,53.2149,255.8679,82.325,277.7799,-0.00023335,-3.998e-05,0.0,0 STARLINK-4675,1 53601U 22104P   23119.53236877 -.00003998  00000-0 -23335-3 0  9991,2 53601  53.2149 255.8679 0000498  82.3250 277.7799 15.08826132 37143,6917.923,95.438,540.132,539.443,0.0
53601.0,STARLINK-4675,PAYLOAD,2023-04-30 12:37:23,15.08843304,4.76e-05,53.2153,251.4084,65.9458,294.1584,0.00053629,8.258e-05,0.0,0 STARLINK-4675,1 53601U 22104P   23120.52597011  .00008258  00000-0  53629-3 0  9993,2 53601  53.2153 251.4084 0000476  65.9458 294.1584 15.08843304 37980,6917.87,95.437,540.065,539.406,0.0
53601.0,STARLINK-4675,PAYLOAD,2023-04-30 14:12:46,15.08849315,8.03e-05,53.2161,251.1129,3.5565,356.5433,0.00039814,6.056e-05,0.0,0 STARLINK-4675,1 53601U 22104P   23120.59220583  .00006056  00000-0  39814-3 0  9991,2 53601  53.2161 251.1129 0000803   3.5565 356.5433 15.08849315 37307,6917.852,95.437,540.272,539.161,0.0
53601.0,STARLINK-4675,PAYLOAD,2023-05-01 12:28:10,15.0885636,3.75e-05,53.2154,246.9466,43.2856,316.8166,0.00032709,4.924e-05,0.0,0 STARLINK-4675,1 53601U 22104P   23121.51956305  .00004924  00000-0  32709-3 0  9990,2 53601  53.2154 246.9466 0000375  43.2856 316.8166 15.08856360 37448,6917.83,95.437,539.955,539.436,0.0
53601.0,STARLINK-4675,PAYLOAD,2023-05-01 17:14:19,15.08858681,2.96e-05,53.2157,246.0542,54.6299,305.4721,0.00054846,8.456e-05,0.0,0 STARLINK-4675,1 53601U 22104P   23121.71828109  .00008456  00000-0  54846-3 0  9992,2 53601  53.2157 246.0542 0000296  54.6299 305.4721 15.08858681 38165,6917.823,95.436,539.893,539.484,0.0
53601.0,STARLINK-4675,PAYLOAD,2023-05-02 12:18:56,15.08851875,5.96e-05,53.2168,242.488,62.8627,297.2426,0.0005398,8.316e-05,0.0,0 STARLINK-4675,1 53601U 22104P   23122.51315873  .00008316  00000-0  53980-3 0  9993,2 53601  53.2168 242.4880 0000596  62.8627 297.2426 15.08851875 37595,6917.844,95.437,540.121,539.297,0.0
53601.0,STARLINK-4675,PAYLOAD,2023-05-02 13:54:19,15.08863011,5.27e-05,53.217,242.1891,112.8415,247.2633,0.00027067,4.025e-05,0.0,0 STARLINK-4675,1 53601U 22104P   23122.57939511  .00004025  00000-0  27067-3 0  9990,2 53601  53.2170 242.1891 0000527 112.8415 247.2633 15.08863011 38290,6917.81,95.436,540.04,539.31,0.0
53601.0,STARLINK-4675,PAYLOAD,2023-05-02 15:29:42,15.08859391,5.41e-05,53.2164,241.8925,56.0778,304.0266,0.00056866,8.779e-05,0.0,0 STARLINK-4675,1 53601U 22104P   23122.64563548  .00008779  00000-0  56866-3 0  9990,2 53601  53.2164 241.8925 0000541  56.0778 304.0266 15.08859391 38306,6917.821,95.436,540.06,539.312,0.0
53601.0,STARLINK-4675,PAYLOAD,2023-05-03 01:02:01,15.08846974,3.3e-05,53.2155,240.1069,79.4335,280.6695,7.8161e-05,9.57e-06,0.0,0 STARLINK-4675,1 53601U 22104P   23123.04307590  .00000957  00000-0  78161-4 0  9991,2 53601  53.2155 240.1069 0000330  79.4335 280.6695 15.08846974 37678,6917.859,95.437,539.952,539.496,0.0
53601.0,STARLINK-4675,PAYLOAD,2023-05-03 12:09:44,15.0883358,3.99e-05,53.2161,238.0234,90.864,269.2398,-0.00015845,-2.808e-05,0.0,0 STARLINK-4675,1 53601U 22104P   23123.50676084 -.00002808  00000-0 -15845-3 0  9997,2 53601  53.2161 238.0234 0000399  90.8640 269.2398 15.08833580 37746,6917.9,95.438,540.041,539.489,0.0
53601.0,STARLINK-4675,PAYLOAD,2023-05-03 13:45:07,15.0883508,4.13e-05,53.2162,237.7257,87.9542,272.1497,-0.00010747,-1.997e-05,0.0,0 STARLINK-4675,1 53601U 22104P   23123.57300138 -.00001997  00000-0 -10747-3 0  9992,2 53601  53.2162 237.7257 0000413  87.9542 272.1497 15.08835080 38441,6917.895,95.438,540.046,539.475,0.0
53601.0,STARLINK-4675,PAYLOAD,2023-05-03 15:20:30,15.08837627,4.84e-05,53.2166,237.4282,88.5859,271.5189,-3.8015e-05,-8.92e-06,0.0,0 STARLINK-4675,1 53601U 22104P   23123.63924167 -.00000892  00000-0 -38015-4 0  9995,2 53601  53.2166 237.4282 0000484  88.5859 271.5189 15.08837627 38457,6917.888,95.438,540.087,539.418,0.0
